{"type": "FeatureCollection", "features": [ {"type": "Feature", "properties": {"norad_id": 30860, "name": "FENGYUN 1C DEB", "group": "fengyun-1c-debris", "lat": -81.08726062123698, "lon": 159.51431134361104, "alt_km": 821.312119469404, "timestamp": "2025-12-20T20:38:44.721818+00:00", "meta": {"OBJECT_NAME": "FENGYUN 1C DEB", "OBJECT_ID": "1999-025AWW", "EPOCH": "2025-12-20T04:13:32.478240", "MEAN_MOTION": 14.25547183, "ECCENTRICITY": 0.00402556, "INCLINATION": 98.9056, "RA_OF_ASC_NODE": 67.7503, "ARG_OF_PERICENTER": 166.8741, "MEAN_ANOMALY": 193.3496, "EPHEMERIS_TYPE": 0, "CLASSIFICATION_TYPE": "U", "NORAD_CAT_ID": 30860, "ELEMENT_SET_NO": 999, "REV_AT_EPOCH": 96622, "BSTAR": 0.0010419804, "MEAN_MOTION_DOT": 2.441e-05, "MEAN_MOTION_DDOT": 0}, "tle": {"line1": "1 30860U 99025AWW 25354.17607035  .00002441  00000+0  10420-2 0  9999", "line2": "2 30860  98.9056  67.7503 0040255 166.8741 193.3496 14.25547183966223"}}, "geometry": {"type": "Point", "coordinates": [159.51431134361104, -81.08726062123698]}}, {"type": "Feature", "properties": {"norad_id": 30862, "name": "FENGYUN 1C DEB", "group": "fengyun-1c-debris", "lat": -44.788789460822535, "lon": -102.97188885839512, "alt_km": 751.4152130543216, "timestamp": "2025-12-20T20:38:44.721828+00:00", "meta": {"OBJECT_NAME": "FENGYUN 1C DEB", "OBJECT_ID": "1999-025AWY", "EPOCH": "2025-12-17T05:13:21.995616", "MEAN_MOTION": 14.43167905, "ECCENTRICITY": 0.00522868, "INCLINATION": 98.9603, "RA_OF_ASC_NODE": 82.2098, "ARG_OF_PERICENTER": 150.6942, "MEAN_ANOMALY": 239.608, "EPHEMERIS_TYPE": 0, "CLASSIFICATION_TYPE": "U", "NORAD_CAT_ID": 30862, "ELEMENT_SET_NO": 999, "REV_AT_EPOCH": 96784, "BSTAR": 0.0025604626, "MEAN_MOTION_DOT": 8.708e-05, "MEAN_MOTION_DDOT": 0}, "tle": {"line1": "1 30862U 99025AWY 25351.21761569  .00008708  00000+0  25605-2 0  9999", "line2": "2 30862  98.9603  82.2098 0052286 150.6942 239.6080 14.43167905967847"}}, "geometry": {"type": "Point", "coordinates": [-102.97188885839512, -44.788789460822535]}}, {"type": "Feature", "properties": {"norad_id": 30863, "name": "FENGYUN 1C DEB", "group": "fengyun-1c-debris", "lat": -12.587162352042075, "lon": -173.93351997383215, "alt_km": 1737.7869691832866, "timestamp": "2025-12-20T20:38:44.721838+00:00", "meta": {"OBJECT_NAME": "FENGYUN 1C DEB", "OBJECT_ID": "1999-025AWZ", "EPOCH": "2025-12-20T00:21:35.593920", "MEAN_MOTION": 12.40536262, "ECCENTRICITY": 0.08774951, "INCLINATION": 99.121, "RA_OF_ASC_NODE": 183.3656, "ARG_OF_PERICENTER": 235.096, "MEAN_ANOMALY": 289.8085, "EPHEMERIS_TYPE": 0, "CLASSIFICATION_TYPE": "U", "NORAD_CAT_ID": 30863, "ELEMENT_SET_NO": 999, "REV_AT_EPOCH": 59830, "BSTAR": 0.0025425483, "MEAN_MOTION_DOT": 1.304e-05, "MEAN_MOTION_DDOT": 0}, "tle": {"line1": "1 30863U 99025AWZ 25354.01499530  .00001304  00000+0  25425-2 0  9992", "line2": "2 30863  99.1210 183.3656 0877495 235.0960 289.8085 12.40536262598307"}}, "geometry": {"type": "Point", "coordinates": [-173.93351997383215, -12.587162352042075]}}, {"type": "Feature", "properties": {"norad_id": 30867, "name": "FENGYUN 1C DEB", "group": "fengyun-1c-debris", "lat": 46.77499068691434, "lon": -107.56820195456773, "alt_km": 784.0921793893267, "timestamp": "2025-12-20T20:38:44.721849+00:00", "meta": {"OBJECT_NAME": "FENGYUN 1C DEB", "OBJECT_ID": "1999-025AXD", "EPOCH": "2025-12-18T05:14:29.791968", "MEAN_MOTION": 14.28057797, "ECCENTRICITY": 0.00540947, "INCLINATION": 97.8775, "RA_OF_ASC_NODE": 258.5183, "ARG_OF_PERICENTER": 339.8314, "MEAN_ANOMALY": 173.0495, "EPHEMERIS_TYPE": 0, "CLASSIFICATION_TYPE": "U", "NORAD_CAT_ID": 30867, "ELEMENT_SET_NO": 999, "REV_AT_EPOCH": 96615, "BSTAR": 0.0020025766, "MEAN_MOTION_DOT": 5.016e-05, "MEAN_MOTION_DDOT": 0}, "tle": {"line1": "1 30867U 99025AXD 25352.21840037  .00005016  00000+0  20026-2 0  9994", "line2": "2 30867  97.8775 258.5183 0054094 339.8314 173.0495 14.28057797966150"}}, "geometry": {"type": "Point", "coordinates": [-107.56820195456773, 46.77499068691434]}}, {"type": "Feature", "properties": {"norad_id": 30868, "name": "FENGYUN 1C DEB", "group": "fengyun-1c-debris", "lat": 70.86742576969758, "lon": 77.0198761736691, "alt_km": 834.0911948736675, "timestamp": "2025-12-20T20:38:44.721859+00:00", "meta": {"OBJECT_NAME": "FENGYUN 1C DEB", "OBJECT_ID": "1999-025AXE", "EPOCH": "2025-12-20T03:50:07.130400", "MEAN_MOTION": 14.1112369, "ECCENTRICITY": 0.0135534, "INCLINATION": 98.2632, "RA_OF_ASC_NODE": 231.6105, "ARG_OF_PERICENTER": 191.5185, "MEAN_ANOMALY": 321.0731, "EPHEMERIS_TYPE": 0, "CLASSIFICATION_TYPE": "U", "NORAD_CAT_ID": 30868, "ELEMENT_SET_NO": 999, "REV_AT_EPOCH": 96815, "BSTAR": 6.0171351e-05, "MEAN_MOTION_DOT": 7.9e-07, "MEAN_MOTION_DDOT": 0}, "tle": {"line1": "1 30868U 99025AXE 25354.15980475  .00000079  00000+0  60171-4 0  9992", "line2": "2 30868  98.2632 231.6105 0135534 191.5185 321.0731 14.11123690968150"}}, "geometry": {"type": "Point", "coordinates": [77.0198761736691, 70.86742576969758]}}, {"type": "Feature", "properties": {"norad_id": 30872, "name": "FENGYUN 1C DEB", "group": "fengyun-1c-debris", "lat": 24.437566550476642, "lon": 43.59226874347985, "alt_km": 732.4175428466124, "timestamp": "2025-12-20T20:38:44.721869+00:00", "meta": {"OBJECT_NAME": "FENGYUN 1C DEB", "OBJECT_ID": "1999-025AXJ", "EPOCH": "2025-12-20T02:19:23.094048", "MEAN_MOTION": 14.3945895, "ECCENTRICITY": 0.00405296, "INCLINATION": 99.1926, "RA_OF_ASC_NODE": 46.9941, "ARG_OF_PERICENTER": 6.8734, "MEAN_ANOMALY": 23.8694, "EPHEMERIS_TYPE": 0, "CLASSIFICATION_TYPE": "U", "NORAD_CAT_ID": 30872, "ELEMENT_SET_NO": 999, "REV_AT_EPOCH": 97842, "BSTAR": 0.00056969079, "MEAN_MOTION_DOT": 1.742e-05, "MEAN_MOTION_DDOT": 0}, "tle": {"line1": "1 30872U 99025AXJ 25354.09679507  .00001742  00000+0  56969-3 0  9998", "line2": "2 30872  99.1926  46.9941 0040529   6.8734  23.8694 14.39458950978429"}}, "geometry": {"type": "Point", "coordinates": [43.59226874347985, 24.437566550476642]}}, {"type": "Feature", "properties": {"norad_id": 30873, "name": "FENGYUN 1C DEB", "group": "fengyun-1c-debris", "lat": 74.83451021045161, "lon": -39.052073366010745, "alt_km": 898.0184390694585, "timestamp": "2025-12-20T20:38:44.721879+00:00", "meta": {"OBJECT_NAME": "FENGYUN 1C DEB", "OBJECT_ID": "1999-025AXK", "EPOCH": "2025-12-19T18:53:43.091520", "MEAN_MOTION": 14.19144223, "ECCENTRICITY": 0.01076938, "INCLINATION": 98.6116, "RA_OF_ASC_NODE": 353.8979, "ARG_OF_PERICENTER": 268.223, "MEAN_ANOMALY": 90.6609, "EPHEMERIS_TYPE": 0, "CLASSIFICATION_TYPE": "U", "NORAD_CAT_ID": 30873, "ELEMENT_SET_NO": 999, "REV_AT_EPOCH": 97292, "BSTAR": 0.00015222939, "MEAN_MOTION_DOT": 2.94e-06, "MEAN_MOTION_DDOT": 0}, "tle": {"line1": "1 30873U 99025AXK 25353.78730430  .00000294  00000+0  15223-3 0  9996", "line2": "2 30873  98.6116 353.8979 0107693 268.2230  90.6609 14.19144223972927"}}, "geometry": {"type": "Point", "coordinates": [-39.052073366010745, 74.83451021045161]}}, {"type": "Feature", "properties": {"norad_id": 30874, "name": "FENGYUN 1C DEB", "group": "fengyun-1c-debris", "lat": 8.16097641423625, "lon": 23.91130353873887, "alt_km": 798.5950417492495, "timestamp": "2025-12-20T20:38:44.721890+00:00", "meta": {"OBJECT_NAME": "FENGYUN 1C DEB", "OBJECT_ID": "1999-025AXL", "EPOCH": "2025-12-19T00:45:01.403136", "MEAN_MOTION": 14.1966129, "ECCENTRICITY": 0.00416905, "INCLINATION": 98.4901, "RA_OF_ASC_NODE": 23.3849, "ARG_OF_PERICENTER": 22.4565, "MEAN_ANOMALY": 3.7904, "EPHEMERIS_TYPE": 0, "CLASSIFICATION_TYPE": "U", "NORAD_CAT_ID": 30874, "ELEMENT_SET_NO": 999, "REV_AT_EPOCH": 97110, "BSTAR": 0.00036442946, "MEAN_MOTION_DOT": 7.35e-06, "MEAN_MOTION_DDOT": 0}, "tle": {"line1": "1 30874U 99025AXL 25353.03126624  .00000735  00000+0  36443-3 0  9996", "line2": "2 30874  98.4901  23.3849 0041690  22.4565   3.7904 14.19661290971108"}}, "geometry": {"type": "Point", "coordinates": [23.91130353873887, 8.16097641423625]}}, {"type": "Feature", "properties": {"norad_id": 30876, "name": "FENGYUN 1C DEB", "group": "fengyun-1c-debris", "lat": -13.650632943907782, "lon": 157.4708090289105, "alt_km": 877.5623142736667, "timestamp": "2025-12-20T20:38:44.721900+00:00", "meta": {"OBJECT_NAME": "FENGYUN 1C DEB", "OBJECT_ID": "1999-025AXN", "EPOCH": "2025-12-20T10:09:54.101376", "MEAN_MOTION": 13.9917824, "ECCENTRICITY": 0.00662941, "INCLINATION": 98.8118, "RA_OF_ASC_NODE": 339.2097, "ARG_OF_PERICENTER": 256.0095, "MEAN_ANOMALY": 259.9053, "EPHEMERIS_TYPE": 0, "CLASSIFICATION_TYPE": "U", "NORAD_CAT_ID": 30876, "ELEMENT_SET_NO": 999, "REV_AT_EPOCH": 95817, "BSTAR": 0.00046092672, "MEAN_MOTION_DOT": 6.38e-06, "MEAN_MOTION_DDOT": 0}, "tle": {"line1": "1 30876U 99025AXN 25354.42354284  .00000638  00000+0  46093-3 0  9991", "line2": "2 30876  98.8118 339.2097 0066294 256.0095 259.9053 13.99178240958175"}}, "geometry": {"type": "Point", "coordinates": [157.4708090289105, -13.650632943907782]}}, {"type": "Feature", "properties": {"norad_id": 30878, "name": "FENGYUN 1C DEB", "group": "fengyun-1c-debris", "lat": -36.74077016746772, "lon": 2.6901442854753737, "alt_km": 841.2510854056864, "timestamp": "2025-12-20T20:38:44.721910+00:00", "meta": {"OBJECT_NAME": "FENGYUN 1C DEB", "OBJECT_ID": "1999-025AXQ", "EPOCH": "2025-12-19T11:31:49.634112", "MEAN_MOTION": 14.11899957, "ECCENTRICITY": 0.0039902, "INCLINATION": 98.7203, "RA_OF_ASC_NODE": 354.7698, "ARG_OF_PERICENTER": 274.9563, "MEAN_ANOMALY": 238.1317, "EPHEMERIS_TYPE": 0, "CLASSIFICATION_TYPE": "U", "NORAD_CAT_ID": 30878, "ELEMENT_SET_NO": 999, "REV_AT_EPOCH": 96462, "BSTAR": 0.00045634, "MEAN_MOTION_DOT": 7.97e-06, "MEAN_MOTION_DDOT": 0}, "tle": {"line1": "1 30878U 99025AXQ 25353.48043558  .00000797  00000+0  45634-3 0  9993", "line2": "2 30878  98.7203 354.7698 0039902 274.9563 238.1317 14.11899957964624"}}, "geometry": {"type": "Point", "coordinates": [2.6901442854753737, -36.74077016746772]}}]}